{
  "norad_id": 63161,
  "name": "QIANFAN-75",
  "history": [
    {
      "epoch": "2026-03-28T20:35:35.138112",
      "apogee_km": 1080.411758328205,
      "perigee_km": 1056.6659473022655,
      "latitude_deg": 39.75744334185891,
      "longitude_deg": -141.52762431977317,
      "semi_major_axis_km": 7446.675852815235,
      "eccentricity": 0.00159439,
      "inclination_deg": 88.972,
      "raan_deg": 309.1784,
      "arg_perigee_deg": 173.769,
      "mean_anomaly_deg": 186.3663,
      "mean_motion_rev_day": 13.51011629
    },
    {
      "epoch": "2026-03-29T03:42:11.231424",
      "apogee_km": 1080.4332073257447,
      "perigee_km": 1056.644057350677,
      "latitude_deg": 76.19847947883176,
      "longitude_deg": -113.08752063987777,
      "semi_major_axis_km": 7446.675632338211,
      "eccentricity": 0.0015973,
      "inclination_deg": 88.9719,
      "raan_deg": 309.1476,
      "arg_perigee_deg": 172.9099,
      "mean_anomaly_deg": 187.2281,
      "mean_motion_rev_day": 13.51011689
    }
  ]
}